#dP2023  8 10  0  0  0.00000000      96 __u+U IGS14 FIT  IAC
## 2274 345600.00000000   900.00000000 60166 0.0000000000000
+  117   C06C07C08C09C10C11C12C13C14C16C19C20C21C22C23C24C25
+        C26C27C28C29C30C32C33C34C35C36C37C38C39C40C41C42C43
+        C44C45C46E02E03E04E05E07E08E09E10E11E12E13E14E15E18
+        E19E21E24E26E27E30E31E33E34E36G01G02G03G04G05G06G07
+        G08G09G10G11G12G13G14G15G16G17G18G19G20G21G23G24G25
+        G26G27G28G29G30G31G32J02J03J04R01R02R03R04R05R07R08
+        R09R11R12R13R14R15R16R17R18R19R20R21R22R24R25  0  0
++         7  8  8  7  8  7  7  7  7  7  6  6  6  6  6  6  6
++         6  6  6  6  6  6  7  6  6  6  6  7  7  7  6  6  6
++         6  6  6  4  4  4  5  4  4  5  5  5  4  5  4  5  4
++         4  5  5  4  5  4  4  4  4  5  4  3  3  4  4  3  4
++         4  4  3  4  3  4  4  4  4  3  4  3  4  4  4  4  3
++         4  4  4  4  4  3  3  9  9 11  8  7  7  7  6  7  7
++         7  7  7  8  7  7  7  7  7  8  8  7  6  7  8  0  0
%c M  cc GPS ccc cccc cccc cccc cccc ccccc ccccc ccccc ccccc
%c cc cc ccc ccc cccc cccc cccc cccc ccccc ccccc ccccc ccccc
%f  1.2500000  1.025000000  0.00000000000  0.000000000000000
%f  0.0000000  0.000000000  0.00000000000  0.000000000000000
%i    0    0    0    0      0      0      0      0         0
%i    0    0    0    0      0      0      0      0         0
/* INFORMATION & ANALYSIS CENTER (IAC)            FINAL DATA
/* S/V CLOCKS ARE ALIGNED TO GNSS TIME                      
/* G:C1WC2W R:C1PC2P E:C1XC5X C:C2IC6I J:C1CC2S             
/* PCV:IGS20_2247 OL/AL:FES2004  NONE     YN ORB:CoN CLK:CoN
*  2023 08 10  2 15  0.00000000
PC06 -13696.787520  23258.626166 -32431.981141    837.521122
PC07 -13404.078210  39707.363200   3419.501222     93.819376
PC08   1549.443671  31792.444115  27736.662829    395.944615
PC09  -3682.440849  24084.656019 -34002.720252    311.416585
PC10  -7711.274596  40111.707960   9514.379883   -140.734687
PC11   4087.456035  14882.330145  23315.064619    771.228422
PC12 -16499.182898  15151.114768  16666.182143    857.972838
PC13   6606.715108  35103.349374  22752.998140    331.502365
PC14   1405.260426  25157.347544 -11922.080867    201.323550
PC16 -16259.825970  22143.591890 -31808.386705    -29.106353
PC19  -7908.637727 -19058.021453  18816.969158   -956.786427
PC20   4261.227425 -27174.194013   4815.870517    373.061003
PC21 -14918.619787  19445.901799  13325.860578   -947.023223
PC22 -16177.785373    448.239712  22721.253902   -358.182459
PC23  22657.869486   9781.584431  13040.755296   -910.759700
PC24   1589.572223  20822.768803 -18525.590761    267.136571
PC25  18206.067675  20937.933822  -3085.958733    186.161396
PC26 -13914.780085   9005.746579 -22458.751959   -161.017861
PC27  22983.357006 -12526.885052  -9690.243339    182.183334
PC28  27068.246880  -1888.940115   6543.359501    136.181995
PC29 -14992.470197 -10896.701005 -20867.394675    158.830624
PC30   6297.442391 -17138.038384 -21108.528625     -3.273306
PC32  14797.805355 -19515.354427 -13382.783889   -533.144592
PC33   7990.042562  19070.570045 -18734.885430   -933.404847
PC34  -4774.862688  17067.224829  21545.615486    233.755636
PC35 -26952.206829   2652.884180  -6811.507063    570.965743
PC36 -17206.798459 -21626.966229   3869.700279   -284.348042
PC37  14852.429762  -7798.287357  22322.144634   -804.930118
PC38  -5951.433899  27670.700760  31324.955726     97.174347
PC39 -22000.242283  21623.192701 -28801.543832     -4.235183
PC40 -20577.289292  36619.161262    796.339960    -32.361082
PC41  16053.164570    273.073413 -22779.480976   -890.399911
PC42  -5196.963024  27191.952207  -3355.243534   -582.903379
PC43  14152.658684  11490.917857  21113.214260     34.583378
PC44 -22638.781239  13331.433066   9429.055029    195.315095
PC45 -22529.862555  -9398.474717 -13495.204474    -12.156883
PC46  -2864.794476 -21264.953516  17826.903679    -75.376397
PE02   7266.473525 -23040.105034  17099.512887     54.744714
PE03  17536.575545 -22702.884115   7324.018196    -44.445464
PE04   -214.504141  20405.278994 -21434.669261   -185.912519
PE05  24759.917416 -11753.138807 -11184.715436      7.579081
PE07 -17232.800102  -6367.433746  23210.488630    -66.246445
PE08    694.304095 -20516.326495  21329.848858   -127.906533
PE09  17058.210988   6358.660792 -23342.081406   -114.960612
PE10  19699.349654  16346.417325  14861.118118   -554.943989
PE11  26461.365367  12164.915811   5260.094876   2689.765888
PE12  10430.076589  17808.882802  21205.822740   -651.958849
PE13 -26153.492679 -12493.504069  -6007.311348    -19.413615
PE14 -11634.025111 -15718.909254 -23297.390268    306.862844
PE15 -10062.927069 -17734.464040 -21456.545544    -43.885186
PE18  21918.575868    584.464760  16049.890935    395.636931
PE19 -19320.969668  21869.183575  -4952.535845  -1884.957355
PE21 -16120.106680   4770.250914 -24357.584661   -545.753019
PE24  15935.975130  17873.215906  17403.394554   -257.222512
PE26 -26429.391371    556.319880  13305.906481    188.249706
PE27 -16136.489704 -17222.645168 -17854.441418   -120.692110
PE30  -6261.551852 -28922.316942   -475.945869   -405.456611
PE31   6666.498368  28824.427352    933.518526     -2.318648
PE33 -12334.114462  12207.351394  23972.851770     -1.707421
PE34  11671.514951 -12555.873572 -24143.766709    -60.709115
PE36  26715.528313      9.696567 -12749.940026    -98.743463
PG01 -20062.772033 -14637.726109 -10223.156952    169.197642
PG02 -15696.469433 -14841.470585 -15055.239690   -567.138487
PG03 -12445.255801 -19562.232325  12915.784935   -194.381606
PG04 -13276.760554  -8444.679536  21422.393975    120.977401
PG05   5060.178051  25961.627092   1484.748092   -138.208835
PG06 -15868.279447   8080.382989  19798.813936    568.308611
PG07 -25730.122015  -5710.760694  -4484.630261    100.233504
PG08  -3403.711500 -16441.108402 -20562.191797   -136.412161
PG09 -19705.044287    895.862035  17727.088751    -90.599462
PG10  12016.916589 -11116.980565 -20663.241670    -48.651768
PG11  -1131.535958  15595.273282  21484.469968   -313.883810
PG12   9420.204854  22774.134802   9722.078932   -411.055536
PG13  -6384.416630  18641.335338 -17893.976501    558.163261
PG14 -14162.620568   7581.274345 -21107.691111    149.255853
PG15   6376.429763  15958.458973 -20673.493849     66.165712
PG16   1102.572470 -25719.935810   5169.753755   -470.234511
PG17 -22450.025846  13621.509376  -3912.921700    722.476553
PG18  25214.376967   3771.931746  -7758.180915   -377.002968
PG19 -20277.173880  16538.623802   3135.677630    355.563121
PG20   -552.078269  23687.611833  12223.423445    418.059894
PG21 -13797.625919 -15465.077118 -16563.859933    150.970780
PG23  15475.974331   2782.025576 -21427.292535     53.207439
PG24  17271.101135  15123.716046 -14077.041600   -284.986062
PG25  15507.048604  11082.983430  18291.676444    461.264780
PG26   6499.276317 -20363.273277  15426.287568    233.527123
PG27   8472.688841 -20543.058840 -14484.665914    -19.226085
PG28  17460.579621  -7948.063413  18348.019092     77.469063
PG29  19301.157662   1130.622062  18208.478493   -607.468243
PG30 -22870.772127   2285.686554 -13412.527974   -497.691707
PG31   7516.105869 -13437.765937  21482.951818   -221.580141
PG32  20450.901677 -16717.596745  -1227.440688   -537.724576
PJ02 -21213.652943  26862.693448 -19956.896558     -2.359531
PJ03 -29640.581684  24150.828015  22771.393031     -0.866339
PJ04 -28133.534743  30359.473235  14424.796002     70.507670
PR01 -10348.567415  23297.720649   -698.315192     63.166363
PR02   -502.815767  18849.693920 -17172.953921    -22.546263
PR03  10216.645234   3796.622018 -23018.309276     82.998922
PR04  14890.252576 -12986.271204 -16100.496723    198.075924
PR05  11677.594181 -22659.834897   -423.869531    117.090162
PR07 -10675.977375  -2870.232162  23026.568865     62.075623
PR08 -14924.922955  13190.591484  16009.613484    -72.057157
PR09 -12223.531014 -21786.370848   5390.071220    135.867601
PR11 -13074.371438   -642.285085 -21881.734797   -127.930390
PR12   -439.503656  16175.130234 -19691.986954     30.013101
PR13  10867.140142  21860.953819  -7399.937121    -37.995990
PR14  17121.928731  14809.870666  11751.225463     25.068323
PR15  12505.807127   -632.337947  22247.208096     87.135170
PR16    465.711995 -15919.310172  19953.890574     17.545745
PR17  22790.265888   3606.556688  10932.777463      7.475689
PR18  24576.906058  -3759.014201  -5595.614759     95.985871
PR19  15425.509024  -8532.571597 -18445.938458   -242.932102
PR20  -6900.019284  -9859.173433 -22491.654849    -98.062507
PR21 -23256.245506  -3242.396358  -9925.284929    -29.206319
PR22 -24407.043756   3533.137349   6556.049597    110.429761
PR24   7921.749382   9957.605757  22124.627479    -19.881350
PR25 -22531.586827  -4795.838141 -10923.925595     43.384697
EOF
